{"type": "FeatureCollection", "features": [ {"type": "Feature", "properties": {"norad_id": 43107, "name": "BEIDOU-3 M7 (C27)", "group": "gnss", "lat": 45.98903718155489, "lon": -3.513477879345633, "alt_km": 21515.307046439542, "timestamp": "2025-12-09T21:34:11.650077+00:00", "meta": {"OBJECT_NAME": "BEIDOU-3 M7 (C27)", "OBJECT_ID": "2018-003A", "EPOCH": "2025-12-09T06:27:46.625760", "MEAN_MOTION": 1.86232164, "ECCENTRICITY": 0.00025806, "INCLINATION": 54.4998, "RA_OF_ASC_NODE": 308.9358, "ARG_OF_PERICENTER": 71.0614, "MEAN_ANOMALY": 288.9559, "EPHEMERIS_TYPE": 0, "CLASSIFICATION_TYPE": "U", "NORAD_CAT_ID": 43107, "ELEMENT_SET_NO": 999, "REV_AT_EPOCH": 5381, "BSTAR": 0, "MEAN_MOTION_DOT": -7.7e-07, "MEAN_MOTION_DDOT": 0}, "tle": {"line1": "1 43107U 18003A   25343.26928965 -.00000077  00000+0  00000+0 0  9994", "line2": "2 43107  54.4998 308.9358 0002580  71.0614 288.9559  1.86232164 53812"}}, "geometry": {"type": "Point", "coordinates": [-3.513477879345633, 45.98903718155489]}}, {"type": "Feature", "properties": {"norad_id": 43108, "name": "BEIDOU-3 M8 (C28)", "group": "gnss", "lat": 53.527690286219375, "lon": 54.041342905696936, "alt_km": 21535.236408515873, "timestamp": "2025-12-09T21:34:11.650088+00:00", "meta": {"OBJECT_NAME": "BEIDOU-3 M8 (C28)", "OBJECT_ID": "2018-003B", "EPOCH": "2025-12-09T05:08:23.746272", "MEAN_MOTION": 1.86230654, "ECCENTRICITY": 0.00048225, "INCLINATION": 54.4927, "RA_OF_ASC_NODE": 308.9205, "ARG_OF_PERICENTER": 273.4107, "MEAN_ANOMALY": 86.5234, "EPHEMERIS_TYPE": 0, "CLASSIFICATION_TYPE": "U", "NORAD_CAT_ID": 43108, "ELEMENT_SET_NO": 999, "REV_AT_EPOCH": 5382, "BSTAR": 0, "MEAN_MOTION_DOT": -7.7e-07, "MEAN_MOTION_DDOT": 0}, "tle": {"line1": "1 43108U 18003B   25343.21416373 -.00000077  00000+0  00000+0 0  9995", "line2": "2 43108  54.4927 308.9205 0004822 273.4107  86.5234  1.86230654 53827"}}, "geometry": {"type": "Point", "coordinates": [54.041342905696936, 53.527690286219375]}}, {"type": "Feature", "properties": {"norad_id": 43207, "name": "BEIDOU-3 M4 (C22)", "group": "gnss", "lat": 14.310973978135324, "lon": -120.3125499694892, "alt_km": 21536.677841087778, "timestamp": "2025-12-09T21:34:11.650102+00:00", "meta": {"OBJECT_NAME": "BEIDOU-3 M4 (C22)", "OBJECT_ID": "2018-018A", "EPOCH": "2025-12-06T10:25:28.940736", "MEAN_MOTION": 1.86230708, "ECCENTRICITY": 0.00041784, "INCLINATION": 56.4806, "RA_OF_ASC_NODE": 69.5126, "ARG_OF_PERICENTER": 11.9666, "MEAN_ANOMALY": 348.0575, "EPHEMERIS_TYPE": 0, "CLASSIFICATION_TYPE": "U", "NORAD_CAT_ID": 43207, "ELEMENT_SET_NO": 999, "REV_AT_EPOCH": 5315, "BSTAR": 0, "MEAN_MOTION_DOT": -4.5e-07, "MEAN_MOTION_DDOT": 0}, "tle": {"line1": "1 43207U 18018A   25340.43436274 -.00000045  00000+0  00000+0 0  9999", "line2": "2 43207  56.4806  69.5126 0004178  11.9666 348.0575  1.86230708 53156"}}, "geometry": {"type": "Point", "coordinates": [-120.3125499694892, 14.310973978135324]}}, {"type": "Feature", "properties": {"norad_id": 43208, "name": "BEIDOU-3 M3 (C21)", "group": "gnss", "lat": 47.36518806900276, "lon": -156.547459067258, "alt_km": 21539.430698821205, "timestamp": "2025-12-09T21:34:11.650114+00:00", "meta": {"OBJECT_NAME": "BEIDOU-3 M3 (C21)", "OBJECT_ID": "2018-018B", "EPOCH": "2025-12-09T04:27:22.129920", "MEAN_MOTION": 1.86231192, "ECCENTRICITY": 0.0006468, "INCLINATION": 56.4827, "RA_OF_ASC_NODE": 69.4258, "ARG_OF_PERICENTER": 317.3873, "MEAN_ANOMALY": 42.5846, "EPHEMERIS_TYPE": 0, "CLASSIFICATION_TYPE": "U", "NORAD_CAT_ID": 43208, "ELEMENT_SET_NO": 999, "REV_AT_EPOCH": 5320, "BSTAR": 0, "MEAN_MOTION_DOT": -4.7e-07, "MEAN_MOTION_DDOT": 0}, "tle": {"line1": "1 43208U 18018B   25343.18567280 -.00000047  00000+0  00000+0 0  9999", "line2": "2 43208  56.4827  69.4258 0006468 317.3873  42.5846  1.86231192 53203"}}, "geometry": {"type": "Point", "coordinates": [-156.547459067258, 47.36518806900276]}}, {"type": "Feature", "properties": {"norad_id": 43245, "name": "BEIDOU-3 M9 (C29)", "group": "gnss", "lat": -21.52413661517852, "lon": -69.87206661726195, "alt_km": 21528.845690776325, "timestamp": "2025-12-09T21:34:11.650131+00:00", "meta": {"OBJECT_NAME": "BEIDOU-3 M9 (C29)", "OBJECT_ID": "2018-029A", "EPOCH": "2025-12-09T09:38:36.109248", "MEAN_MOTION": 1.86227964, "ECCENTRICITY": 0.00016746, "INCLINATION": 54.3687, "RA_OF_ASC_NODE": 306.5834, "ARG_OF_PERICENTER": 274.0787, "MEAN_ANOMALY": 85.8921, "EPHEMERIS_TYPE": 0, "CLASSIFICATION_TYPE": "U", "NORAD_CAT_ID": 43245, "ELEMENT_SET_NO": 999, "REV_AT_EPOCH": 5236, "BSTAR": 0, "MEAN_MOTION_DOT": -7.6e-07, "MEAN_MOTION_DDOT": 0}, "tle": {"line1": "1 43245U 18029A   25343.40180682 -.00000076  00000+0  00000+0 0  9996", "line2": "2 43245  54.3687 306.5834 0001674 274.0787  85.8921  1.86227964 52369"}}, "geometry": {"type": "Point", "coordinates": [-69.87206661726195, -21.52413661517852]}}, {"type": "Feature", "properties": {"norad_id": 43246, "name": "BEIDOU-3 M10 (C30)", "group": "gnss", "lat": 13.41121688949941, "lon": -43.58411878974622, "alt_km": 21516.200182606663, "timestamp": "2025-12-09T21:34:11.650142+00:00", "meta": {"OBJECT_NAME": "BEIDOU-3 M10 (C30)", "OBJECT_ID": "2018-029B", "EPOCH": "2025-12-09T08:05:23.415648", "MEAN_MOTION": 1.86228788, "ECCENTRICITY": 0.00039729, "INCLINATION": 54.3665, "RA_OF_ASC_NODE": 306.6138, "ARG_OF_PERICENTER": 359.0444, "MEAN_ANOMALY": 0.9446, "EPHEMERIS_TYPE": 0, "CLASSIFICATION_TYPE": "U", "NORAD_CAT_ID": 43246, "ELEMENT_SET_NO": 999, "REV_AT_EPOCH": 5234, "BSTAR": 0, "MEAN_MOTION_DOT": -7.6e-07, "MEAN_MOTION_DDOT": 0}, "tle": {"line1": "1 43246U 18029B   25343.33707657 -.00000076  00000+0  00000+0 0  9996", "line2": "2 43246  54.3665 306.6138 0003972 359.0444   0.9446  1.86228788 52344"}}, "geometry": {"type": "Point", "coordinates": [-43.58411878974622, 13.41121688949941]}}, {"type": "Feature", "properties": {"norad_id": 43286, "name": "IRNSS-1I", "group": "gnss", "lat": 9.726934638551043, "lon": 95.00797580718637, "alt_km": 35873.248387963424, "timestamp": "2025-12-09T21:34:11.650154+00:00", "meta": {"OBJECT_NAME": "IRNSS-1I", "OBJECT_ID": "2018-035A", "EPOCH": "2025-12-08T20:42:35.011008", "MEAN_MOTION": 1.00269532, "ECCENTRICITY": 0.0021883, "INCLINATION": 29.1411, "RA_OF_ASC_NODE": 77.1575, "ARG_OF_PERICENTER": 181.4229, "MEAN_ANOMALY": 184.9765, "EPHEMERIS_TYPE": 0, "CLASSIFICATION_TYPE": "U", "NORAD_CAT_ID": 43286, "ELEMENT_SET_NO": 999, "REV_AT_EPOCH": 2817, "BSTAR": 0, "MEAN_MOTION_DOT": 7.6e-07, "MEAN_MOTION_DDOT": 0}, "tle": {"line1": "1 43286U 18035A   25342.86290522  .00000076  00000+0  00000+0 0  9991", "line2": "2 43286  29.1411  77.1575 0021883 181.4229 184.9765  1.00269532 28170"}}, "geometry": {"type": "Point", "coordinates": [95.00797580718637, 9.726934638551043]}}, {"type": "Feature", "properties": {"norad_id": 43508, "name": "COSMOS 2527 (756)", "group": "gnss", "lat": -49.326713683360616, "lon": 48.18847010601613, "alt_km": 19131.554920586426, "timestamp": "2025-12-09T21:34:11.650165+00:00", "meta": {"OBJECT_NAME": "COSMOS 2527 (756)", "OBJECT_ID": "2018-053A", "EPOCH": "2025-12-09T12:04:31.346976", "MEAN_MOTION": 2.13102032, "ECCENTRICITY": 0.00085763, "INCLINATION": 65.4709, "RA_OF_ASC_NODE": 80.2399, "ARG_OF_PERICENTER": 224.3157, "MEAN_ANOMALY": 135.632, "EPHEMERIS_TYPE": 0, "CLASSIFICATION_TYPE": "U", "NORAD_CAT_ID": 43508, "ELEMENT_SET_NO": 999, "REV_AT_EPOCH": 5823, "BSTAR": 0, "MEAN_MOTION_DOT": -1.3e-07, "MEAN_MOTION_DDOT": 0}, "tle": {"line1": "1 43508U 18053A   25343.50314059 -.00000013  00000+0  00000+0 0  9994", "line2": "2 43508  65.4709  80.2399 0008576 224.3157 135.6320  2.13102032 58236"}}, "geometry": {"type": "Point", "coordinates": [48.18847010601613, -49.326713683360616]}}, {"type": "Feature", "properties": {"norad_id": 43539, "name": "BEIDOU-2 IGSO-7 (C16)", "group": "gnss", "lat": -8.372124085776862, "lon": 158.8007555496062, "alt_km": 35950.74220865874, "timestamp": "2025-12-09T21:34:11.650176+00:00", "meta": {"OBJECT_NAME": "BEIDOU-2 IGSO-7 (C16)", "OBJECT_ID": "2018-057A", "EPOCH": "2025-12-09T10:39:54.393984", "MEAN_MOTION": 1.00258071, "ECCENTRICITY": 0.0092596, "INCLINATION": 55.1734, "RA_OF_ASC_NODE": 164.6998, "ARG_OF_PERICENTER": 235.2278, "MEAN_ANOMALY": 309.5847, "EPHEMERIS_TYPE": 0, "CLASSIFICATION_TYPE": "U", "NORAD_CAT_ID": 43539, "ELEMENT_SET_NO": 999, "REV_AT_EPOCH": 2722, "BSTAR": 0, "MEAN_MOTION_DOT": -6.9e-07, "MEAN_MOTION_DDOT": 0}, "tle": {"line1": "1 43539U 18057A   25343.44437956 -.00000069  00000+0  00000+0 0  9998", "line2": "2 43539  55.1734 164.6998 0092596 235.2278 309.5847  1.00258071 27227"}}, "geometry": {"type": "Point", "coordinates": [158.8007555496062, -8.372124085776862]}}, {"type": "Feature", "properties": {"norad_id": 43564, "name": "GSAT0221 (GALILEO 25)", "group": "gnss", "lat": -3.842174727517189, "lon": 169.37192715073553, "alt_km": 23225.39201582206, "timestamp": "2025-12-09T21:34:11.650187+00:00", "meta": {"OBJECT_NAME": "GSAT0221 (GALILEO 25)", "OBJECT_ID": "2018-060A", "EPOCH": "2025-12-09T00:16:12.119232", "MEAN_MOTION": 1.70475733, "ECCENTRICITY": 0.00067013, "INCLINATION": 57.2286, "RA_OF_ASC_NODE": 346.9182, "ARG_OF_PERICENTER": 282.1379, "MEAN_ANOMALY": 77.8037, "EPHEMERIS_TYPE": 0, "CLASSIFICATION_TYPE": "U", "NORAD_CAT_ID": 43564, "ELEMENT_SET_NO": 999, "REV_AT_EPOCH": 4592, "BSTAR": 0, "MEAN_MOTION_DOT": -8.7e-07, "MEAN_MOTION_DDOT": 0}, "tle": {"line1": "1 43564U 18060A   25343.01125138 -.00000087  00000+0  00000+0 0  9999", "line2": "2 43564  57.2286 346.9182 0006701 282.1379  77.8037  1.70475733 45922"}}, "geometry": {"type": "Point", "coordinates": [169.37192715073553, -3.842174727517189]}}]}